{"type": "FeatureCollection", "features": [ {"type": "Feature", "properties": {"norad_id": 34529, "name": "IRIDIUM 33 DEB", "group": "iridium-33-debris", "lat": 33.14206797904681, "lon": 41.94978415709966, "alt_km": 757.1115543789929, "timestamp": "2025-12-02T23:34:15.901697+00:00", "meta": {"OBJECT_NAME": "IRIDIUM 33 DEB", "OBJECT_ID": "1997-051HW", "EPOCH": "2025-12-02T10:04:51.750624", "MEAN_MOTION": 14.40602398, "ECCENTRICITY": 0.0003582, "INCLINATION": 86.365, "RA_OF_ASC_NODE": 39.8104, "ARG_OF_PERICENTER": 214.776, "MEAN_ANOMALY": 145.3205, "EPHEMERIS_TYPE": 0, "CLASSIFICATION_TYPE": "U", "NORAD_CAT_ID": 34529, "ELEMENT_SET_NO": 999, "REV_AT_EPOCH": 87993, "BSTAR": 0.00017051, "MEAN_MOTION_DOT": 5.63e-06, "MEAN_MOTION_DDOT": 0}, "tle": {"line1": "1 34529U 97051HW  25336.42004341  .00000563  00000+0  17051-3 0  9992", "line2": "2 34529  86.3650  39.8104 0003582 214.7760 145.3205 14.40602398879936"}}, "geometry": {"type": "Point", "coordinates": [41.94978415709966, 33.14206797904681]}}, {"type": "Feature", "properties": {"norad_id": 34538, "name": "IRIDIUM 33 DEB", "group": "iridium-33-debris", "lat": 19.25877607968883, "lon": -171.47315549891346, "alt_km": 773.1790095114775, "timestamp": "2025-12-02T23:34:15.901707+00:00", "meta": {"OBJECT_NAME": "IRIDIUM 33 DEB", "OBJECT_ID": "1997-051JF", "EPOCH": "2025-12-02T03:08:34.535328", "MEAN_MOTION": 14.42546376, "ECCENTRICITY": 0.00341464, "INCLINATION": 86.2785, "RA_OF_ASC_NODE": 10.2023, "ARG_OF_PERICENTER": 3.5659, "MEAN_ANOMALY": 59.4066, "EPHEMERIS_TYPE": 0, "CLASSIFICATION_TYPE": "U", "NORAD_CAT_ID": 34538, "ELEMENT_SET_NO": 999, "REV_AT_EPOCH": 87603, "BSTAR": 0.0010217292, "MEAN_MOTION_DOT": 3.431e-05, "MEAN_MOTION_DDOT": 0}, "tle": {"line1": "1 34538U 97051JF  25336.13095527  .00003431  00000+0  10217-2 0  9999", "line2": "2 34538  86.2785  10.2023 0034146   3.5659  59.4066 14.42546376876031"}}, "geometry": {"type": "Point", "coordinates": [-171.47315549891346, 19.25877607968883]}}, {"type": "Feature", "properties": {"norad_id": 34540, "name": "IRIDIUM 33 DEB", "group": "iridium-33-debris", "lat": 23.135760042997546, "lon": 130.48702314606385, "alt_km": 636.8533294047784, "timestamp": "2025-12-02T23:34:15.901718+00:00", "meta": {"OBJECT_NAME": "IRIDIUM 33 DEB", "OBJECT_ID": "1997-051JH", "EPOCH": "2025-12-02T10:24:08.670816", "MEAN_MOTION": 14.74958051, "ECCENTRICITY": 0.0014683, "INCLINATION": 86.3092, "RA_OF_ASC_NODE": 312.3182, "ARG_OF_PERICENTER": 197.1852, "MEAN_ANOMALY": 288.0339, "EPHEMERIS_TYPE": 0, "CLASSIFICATION_TYPE": "U", "NORAD_CAT_ID": 34540, "ELEMENT_SET_NO": 999, "REV_AT_EPOCH": 88869, "BSTAR": 0.0020015, "MEAN_MOTION_DOT": 0.00013506, "MEAN_MOTION_DDOT": 0}, "tle": {"line1": "1 34540U 97051JH  25336.43343369  .00013506  00000+0  20015-2 0  9996", "line2": "2 34540  86.3092 312.3182 0014683 197.1852 288.0339 14.74958051888697"}}, "geometry": {"type": "Point", "coordinates": [130.48702314606385, 23.135760042997546]}}, {"type": "Feature", "properties": {"norad_id": 34648, "name": "IRIDIUM 33 DEB", "group": "iridium-33-debris", "lat": 26.85447126963585, "lon": -72.28462370335487, "alt_km": 782.1026297015524, "timestamp": "2025-12-02T23:34:15.901728+00:00", "meta": {"OBJECT_NAME": "IRIDIUM 33 DEB", "OBJECT_ID": "1997-051JZ", "EPOCH": "2025-12-01T03:11:38.418720", "MEAN_MOTION": 14.1087899, "ECCENTRICITY": 0.01868529, "INCLINATION": 86.3903, "RA_OF_ASC_NODE": 286.6295, "ARG_OF_PERICENTER": 334.6513, "MEAN_ANOMALY": 24.5588, "EPHEMERIS_TYPE": 0, "CLASSIFICATION_TYPE": "U", "NORAD_CAT_ID": 34648, "ELEMENT_SET_NO": 999, "REV_AT_EPOCH": 84797, "BSTAR": 0.0079356223, "MEAN_MOTION_DOT": 0.00016788, "MEAN_MOTION_DDOT": 0}, "tle": {"line1": "1 34648U 97051JZ  25335.13308355  .00016788  00000+0  79356-2 0  9994", "line2": "2 34648  86.3903 286.6295 0186852 334.6513  24.5588 14.10878990847973"}}, "geometry": {"type": "Point", "coordinates": [-72.28462370335487, 26.85447126963585]}}, {"type": "Feature", "properties": {"norad_id": 34651, "name": "IRIDIUM 33 DEB", "group": "iridium-33-debris", "lat": -61.95717119292452, "lon": 137.71499828412732, "alt_km": 766.3283536700528, "timestamp": "2025-12-02T23:34:15.901740+00:00", "meta": {"OBJECT_NAME": "IRIDIUM 33 DEB", "OBJECT_ID": "1997-051KC", "EPOCH": "2025-12-02T05:19:54.206688", "MEAN_MOTION": 14.25531146, "ECCENTRICITY": 0.0141862, "INCLINATION": 86.2826, "RA_OF_ASC_NODE": 145.0488, "ARG_OF_PERICENTER": 237.4272, "MEAN_ANOMALY": 121.3155, "EPHEMERIS_TYPE": 0, "CLASSIFICATION_TYPE": "U", "NORAD_CAT_ID": 34651, "ELEMENT_SET_NO": 999, "REV_AT_EPOCH": 85746, "BSTAR": 0.0036308, "MEAN_MOTION_DOT": 9.56e-05, "MEAN_MOTION_DDOT": 0}, "tle": {"line1": "1 34651U 97051KC  25336.22215517  .00009560  00000+0  36308-2 0  9996", "line2": "2 34651  86.2826 145.0488 0141862 237.4272 121.3155 14.25531146857462"}}, "geometry": {"type": "Point", "coordinates": [137.71499828412732, -61.95717119292452]}}, {"type": "Feature", "properties": {"norad_id": 34652, "name": "IRIDIUM 33 DEB", "group": "iridium-33-debris", "lat": 25.46986966351276, "lon": 162.5953465748844, "alt_km": 705.448241203233, "timestamp": "2025-12-02T23:34:15.901750+00:00", "meta": {"OBJECT_NAME": "IRIDIUM 33 DEB", "OBJECT_ID": "1997-051KD", "EPOCH": "2025-12-02T12:03:44.444736", "MEAN_MOTION": 14.61898676, "ECCENTRICITY": 0.0027063, "INCLINATION": 86.3312, "RA_OF_ASC_NODE": 344.5601, "ARG_OF_PERICENTER": 334.9096, "MEAN_ANOMALY": 177.4047, "EPHEMERIS_TYPE": 0, "CLASSIFICATION_TYPE": "U", "NORAD_CAT_ID": 34652, "ELEMENT_SET_NO": 999, "REV_AT_EPOCH": 88334, "BSTAR": 0.0012168, "MEAN_MOTION_DOT": 6.139e-05, "MEAN_MOTION_DDOT": 0}, "tle": {"line1": "1 34652U 97051KD  25336.50259774  .00006139  00000+0  12168-2 0  9998", "line2": "2 34652  86.3312 344.5601 0027063 334.9096 177.4047 14.61898676883342"}}, "geometry": {"type": "Point", "coordinates": [162.5953465748844, 25.46986966351276]}}, {"type": "Feature", "properties": {"norad_id": 34690, "name": "IRIDIUM 33 DEB", "group": "iridium-33-debris", "lat": -79.2437450785662, "lon": -119.29882605713492, "alt_km": 724.4970674146971, "timestamp": "2025-12-02T23:34:15.901760+00:00", "meta": {"OBJECT_NAME": "IRIDIUM 33 DEB", "OBJECT_ID": "1997-051KM", "EPOCH": "2025-12-02T11:05:34.176768", "MEAN_MOTION": 14.55030939, "ECCENTRICITY": 0.0011852, "INCLINATION": 86.3794, "RA_OF_ASC_NODE": 41.4576, "ARG_OF_PERICENTER": 59.8454, "MEAN_ANOMALY": 358.3612, "EPHEMERIS_TYPE": 0, "CLASSIFICATION_TYPE": "U", "NORAD_CAT_ID": 34690, "ELEMENT_SET_NO": 999, "REV_AT_EPOCH": 87945, "BSTAR": 0.00062694, "MEAN_MOTION_DOT": 2.723e-05, "MEAN_MOTION_DDOT": 0}, "tle": {"line1": "1 34690U 97051KM  25336.46220112  .00002723  00000+0  62694-3 0  9994", "line2": "2 34690  86.3794  41.4576 0011852  59.8454 358.3612 14.55030939879450"}}, "geometry": {"type": "Point", "coordinates": [-119.29882605713492, -79.2437450785662]}}, {"type": "Feature", "properties": {"norad_id": 34693, "name": "IRIDIUM 33 DEB", "group": "iridium-33-debris", "lat": -27.58702343445499, "lon": -53.27508711853638, "alt_km": 499.0060633000039, "timestamp": "2025-12-02T23:34:15.901772+00:00", "meta": {"OBJECT_NAME": "IRIDIUM 33 DEB", "OBJECT_ID": "1997-051KQ", "EPOCH": "2025-12-02T05:02:44.335968", "MEAN_MOTION": 15.24289177, "ECCENTRICITY": 0.0016139, "INCLINATION": 86.305, "RA_OF_ASC_NODE": 309.0413, "ARG_OF_PERICENTER": 69.1334, "MEAN_ANOMALY": 350.4377, "EPHEMERIS_TYPE": 0, "CLASSIFICATION_TYPE": "U", "NORAD_CAT_ID": 34693, "ELEMENT_SET_NO": 999, "REV_AT_EPOCH": 88754, "BSTAR": 0.0049862, "MEAN_MOTION_DOT": 0.00124045, "MEAN_MOTION_DDOT": 0}, "tle": {"line1": "1 34693U 97051KQ  25336.21023537  .00124045  00000+0  49862-2 0  9995", "line2": "2 34693  86.3050 309.0413 0016139  69.1334 350.4377 15.24289177887542"}}, "geometry": {"type": "Point", "coordinates": [-53.27508711853638, -27.58702343445499]}}, {"type": "Feature", "properties": {"norad_id": 34696, "name": "IRIDIUM 33 DEB", "group": "iridium-33-debris", "lat": 60.30690459883894, "lon": 38.77710997600795, "alt_km": 714.2581427474915, "timestamp": "2025-12-02T23:34:15.901783+00:00", "meta": {"OBJECT_NAME": "IRIDIUM 33 DEB", "OBJECT_ID": "1997-051KT", "EPOCH": "2025-12-02T10:15:31.222080", "MEAN_MOTION": 14.64140444, "ECCENTRICITY": 0.0074964, "INCLINATION": 86.1859, "RA_OF_ASC_NODE": 32.3162, "ARG_OF_PERICENTER": 202.3954, "MEAN_ANOMALY": 176.9132, "EPHEMERIS_TYPE": 0, "CLASSIFICATION_TYPE": "U", "NORAD_CAT_ID": 34696, "ELEMENT_SET_NO": 999, "REV_AT_EPOCH": 86522, "BSTAR": 0.0067332, "MEAN_MOTION_DOT": 0.00037042, "MEAN_MOTION_DDOT": 0}, "tle": {"line1": "1 34696U 97051KT  25336.42744470  .00037042  00000+0  67332-2 0  9999", "line2": "2 34696  86.1859  32.3162 0074964 202.3954 176.9132 14.64140444865223"}}, "geometry": {"type": "Point", "coordinates": [38.77710997600795, 60.30690459883894]}}, {"type": "Feature", "properties": {"norad_id": 34765, "name": "IRIDIUM 33 DEB", "group": "iridium-33-debris", "lat": 80.64161572197513, "lon": 59.80171550613592, "alt_km": 759.8332191784375, "timestamp": "2025-12-02T23:34:15.901792+00:00", "meta": {"OBJECT_NAME": "IRIDIUM 33 DEB", "OBJECT_ID": "1997-051LJ", "EPOCH": "2025-12-02T05:08:41.186976", "MEAN_MOTION": 14.40418764, "ECCENTRICITY": 0.00145508, "INCLINATION": 86.3401, "RA_OF_ASC_NODE": 37.2773, "ARG_OF_PERICENTER": 249.3549, "MEAN_ANOMALY": 173.3707, "EPHEMERIS_TYPE": 0, "CLASSIFICATION_TYPE": "U", "NORAD_CAT_ID": 34765, "ELEMENT_SET_NO": 999, "REV_AT_EPOCH": 87462, "BSTAR": 0.00049787542, "MEAN_MOTION_DOT": 1.602e-05, "MEAN_MOTION_DDOT": 0}, "tle": {"line1": "1 34765U 97051LJ  25336.21436559  .00001602  00000+0  49788-3 0  9998", "line2": "2 34765  86.3401  37.2773 0014550 249.3549 173.3707 14.40418764874623"}}, "geometry": {"type": "Point", "coordinates": [59.80171550613592, 80.64161572197513]}}]}